Casenum,Desc,StreetNum,StreetName,StreetSuf,Jur,City,State,CreatedById
16-3-FI,Suspicious Person,147,FLORENCE,ST,BRO,BROCKTON,MA,535
16-1-FI,Police Information,692,N MAIN,ST,BRO,BROCKTON,MA,560
16-2-FI,Police Information,385,WESTGATE,DR,BRO,BROCKTON,MA,548
16-4-FI,Suspicious Activity,1300,MAIN,ST,BRO,BROCKTON,MA,535
16-5-FI,UNLAWFUL POSSESION FIREARM,73,N WARREN,AVE,BRO,BROCKTON,MA,407
16-115-FI,Police Information,27,LYMAN,ST,BRO,BROCKTON,MA,548
16-7-FI,Suspicious Activity,155,CENTRE,ST,BRO,BROCKTON,MA,503
16-6-FI,Suspicious Person,175,FOREST,AVE,BRO,BROCKTON,MA,443
16-8-FI,Suspicious Activity,382,N MAIN,ST,BRO,BROCKTON,MA,558
16-9-FI,Suspicious Vehicle,17,LINDEN,ST,BRO,BROCKTON,MA,563
16-10-FI,Other,73,HIGHLAND,ST,BRO,BROCKTON,MA,347
16-11-FI,Other,30,PARK,ST,BRO,BROCKTON,MA,347
16-12-FI,Police Information,35,TORREY,ST,BRO,BROCKTON,MA,548
16-13-FI,Suspicious Person,142,E ASHLAND,ST,BRO,BROCKTON,MA,535
16-14-FI,Suspicious Activity,37,ELM,AVE,BRO,BROCKTON,MA,547
16-16-FI,Suspicious Vehicle,937,PLEASANT,ST,BRO,BROCKTON,MA,535
16-17-FI,Suspicious Vehicle,88,HILL,ST,BRO,BROCKTON,MA,507
16-19-FI,Suspicious Vehicle,50,SOUTH,ST,BRO,BROCKTON,MA,535
16-18-FI,Suspicious Activity,31,FALCONER,AVE,BRO,BROCKTON,MA,535
16-20-FI,Police Information,216,BELMONT,ST,BRO,BROCKTON,MA,548
16-21-FI,Traffic Post,1,LYMAN,ST,BRO,BROCKTON,MA,559
16-23-FI,GANG INTEL,848,MONTELLO,ST,BRO,BROCKTON,MA,407
16-22-FI,Suspicious Person,21,TILTON,AVE,BRO,BROCKTON,MA,517
16-24-FI,Suspicious Vehicle,611,N MONTELLO,ST,BRO,BROCKTON,MA,503
16-25-FI,Suspicious Activity,18,FAIRFIELD,ST,BRO,BROCKTON,MA,517
16-26-FI,Police Information,,TABER,AVE,BRO,BROCKTON,MA,548
16-27-FI,GANG INTELLIGENCE,35,FORD,ST,BRO,BROCKTON,MA,503
16-28-FI,Police Information,335,MAIN,ST,BRO,BROCKTON,MA,535
16-29-FI,GANG INTELLIGENCE,19,HIGHLAND,ST,BRO,BROCKTON,MA,503
16-30-FI,Suspicious Activity,40,TURNER,ST,BRO,BROCKTON,MA,415
16-31-FI,Suspicious Vehicle,705,WARREN,AVE,BRO,BROCKTON,MA,415
16-32-FI,Suspicious Vehicle,490,FOREST,AVE,BRO,BROCKTON,MA,535
16-33-FI,Suspicious Vehicle,41,EATON,ST,BRO,BROCKTON,MA,437
16-35-FI,Suspicious Vehicle,,,,BRO,BROCKTON,MA,314
16-34-FI,Suspicious Vehicle,66,CLIFTON,AVE,BRO,BROCKTON,MA,548
16-36-FI,Police Information,402,PLEASANT,ST,BRO,BROCKTON,MA,548
16-36-FI,Police Information - - NARCOTICS DISTRIBUTION,31,FALCONER,AVE,BRO,BROCKTON,MA,548
16-37-FI,Suspicious Vehicle,80,COUNTRY CLUB,LN,BRO,BROCKTON,MA,548
16-38-FI,Suspicious Activity,65,WESTGATE,DR,BRO,BROCKTON,MA,387
16-41-FI,DRUG DEALING,66,GLENWOOD,ST,BRO,BROCKTON,MA,407
16-39-FI,Suspicious Vehicle,74,CENTRE,ST,BRO,BROCKTON,MA,535
16-40-FI,Police Information,,OAK,ST,BRO,BROCKTON,MA,548
16-42-FI,Suspicious Vehicle,,COMMERCIAL,YD,BRO,BROCKTON,MA,535
16-43-FI,Suspicious Vehicle,111,BATTLES,ST,BRO,BROCKTON,MA,415
16-44-FI,Other,43,WILMINGTON,ST,BRO,BROCKTON,MA,389
16-45-FI,Suspicious Person,613,TORREY,ST,BRO,BROCKTON,MA,443
16-46-FI,Suspicious Activity,173,MANOMET,ST,BRO,BROCKTON,MA,443
16-47-FI,Suspicious Activity,38,ELLIOT,ST,BRO,BROCKTON,MA,365
16-48-FI,Suspicious Person,191,PLEASANT,ST,BRO,BROCKTON,MA,548
16-49-FI,Police Information,1320,BELMONT,ST,BRO,BROCKTON,MA,548
16-50-FI,Suspicious Activity,1,PLYMOUTH,ST,BRO,BROCKTON,MA,479
16-53-FI,Police Information,373,HOVENDON,AVE,BRO,BROCKTON,MA,548
16-54-FI,Suspicious Activity,206,CRESCENT,ST,BRO,BROCKTON,MA,292
16-55-FI,Other,2,BRETT,ST,BRO,BROCKTON,MA,499
16-56-FI,SUSPECTED DRUG ACTIVITY,81,WARREN,AVE,BRO,BROCKTON,MA,407
16-57-FI,Police Information,99,LEGION,PKWY,BRO,BROCKTON,MA,479
16-58-FI,Police Information,1092,MONTELLO,ST,BRO,BROCKTON,MA,541
16-59-FI,Police Information,42,N CARY,ST,BRO,BROCKTON,MA,443
16-60-FI,Police Information,19,BOUVE,AVE,BRO,BROCKTON,MA,503
16-61-FI,Suspicious Activity,79,LAWRENCE,ST,BRO,BROCKTON,MA,535
16-62-FI,Police Information,83,AUBURN,ST,BRO,BROCKTON,MA,548
16-63-FI,Suspicious Vehicle,,TEMPLE,ST,BRO,BROCKTON,MA,503
16-64-FI,Suspicious Person,180,GREEN,ST,BRO,BROCKTON,MA,415
17-55-FI,Police Information -- MATCHING ALIAS TO TRUE ID,66,GLENWOOD,ST,BRO,BROCKTON,MA,548
16-66-FI,GUN POSSESSION INCIDENT,66,GLENWOOD,ST,BRO,BROCKTON,MA,407
16-67-FI,Suspicious Activity,33,N MAIN,ST,BRO,BROCKTON,MA,548
16-68-FI,PROSTITUTION ACTIVITY,385,WESTGATE,DR,BRO,BROCKTON,MA,479
16-69-FI,DRUG DEALING,170,NILSSON,ST,BRO,BROCKTON,MA,535
16-72-FI,Suspicious Person,576,PLAIN,ST,BRO,BROCKTON,MA,443
16-70-FI,Directed Patrol,102,ASH,ST,BRO,BROCKTON,MA,559
16-71-FI,Suspicious Activity,6,GODDARD,RD,BRO,BROCKTON,MA,415
16-73-FI,Police Information,195,W ELM,ST,BRO,BROCKTON,MA,548
16-75-FI,Police Information,385,WESTGATE,DR,BRO,BROCKTON,MA,548
16-74-FI,Police Information,,MENLO,ST,BRO,BROCKTON,MA,483
16-76-FI,Police Information,339,ASH,ST,BRO,BROCKTON,MA,548
16-77-FI,Suspicious Person,44,CROWELL,ST,BRO,BROCKTON,MA,415
16-78-FI,Suspicious Person,180,GREEN,ST,BRO,BROCKTON,MA,389
16-79-FI,Police Information,731,SUMMER,ST,BRO,BROCKTON,MA,548
16-80-FI,Police Information,139,FLORENCE,ST,BRO,BROCKTON,MA,548
16-81-FI,Suspicious Vehicle,180,HIGHLAND,ST,BRO,BROCKTON,MA,415
16-82-FI,Suspicious Vehicle,49,JAMES,ST,BRO,BROCKTON,MA,535
16-88-FI,Police Information,,,,BRO,BROCKTON,MA,548
16-83-FI,Suspicious Person,154,DOVER,ST,BRO,BROCKTON,MA,415
16-84-FI,Police Information,162,WARREN,AVE,BRO,BROCKTON,MA,446
16-85-FI,Suspicious Vehicle,84,FOSTER,ST,BRO,BROCKTON,MA,535
16-86-FI,SUSPECTED DRUG DEALING,61,HILLBERG,AVE,BRO,BROCKTON,MA,535
16-87-FI,GANG INTELL,116,CRESCENT,ST,BRO,BROCKTON,MA,503
16-89-FI,Suspicious Vehicle,15,HILL,ST,BRO,BROCKTON,MA,507
16-92-FI,TRAFFIC STOP,130,LYMAN,ST,BRO,BROCKTON,MA,536
16-91-FI,Traffic Post,174,DOVER,ST,BRO,BROCKTON,MA,415
16-95-FI,Police Information,684,MAIN,ST,BRO,BROCKTON,MA,443
16-96-FI,Suspicious Activity,40,N MAIN,ST,BRO,BROCKTON,MA,548
16-97-FI,Suspicious Vehicle,109,LAWRENCE,ST,BRO,BROCKTON,MA,479
16-98-FI,MOTOR VEHICLE STOP,,OAK RIDGE      (EAST),DR,BRO,BROCKTON,MA,479
16-99-FI,Suspicious Activity,41,BROOK,ST,BRO,BROCKTON,MA,499
16-100-FI,Suspicious Vehicle,915,MAIN,ST,BRO,BROCKTON,MA,535
16-101-FI,Suspicious Activity,217,PLEASANT,ST,BRO,BROCKTON,MA,499
16-102-FI,Suspicious Activity,45,OAKDALE,ST,BRO,BROCKTON,MA,531
16-106-FI,Police Information,33,W ELM,ST,BRO,BROCKTON,MA,544
16-103-FI,OFFICER SAFETY,50,TABER,AVE,BRO,BROCKTON,MA,407
16-104-FI,Police Information,632,WARREN,AVE,BRO,BROCKTON,MA,503
16-105-FI,Police Information,203,N MAIN,ST,BRO,BROCKTON,MA,548
16-107-FI,OFFICER SAFETY,31,BROOKSIDE,AVE,BRO,BROCKTON,MA,548
16-108-FI,Suspicious Activity,51,ASH,ST,BRO,BROCKTON,MA,535
16-109-FI,Suspicious Activity,105,N MAIN,ST,BRO,BROCKTON,MA,415
16-110-FI,Other,53,WENDELL,AVE,BRO,BROCKTON,MA,552
16-111-FI,Police Information - NARCOTICS ACTIVITY,16,CURVE,AVE,BRO,BROCKTON,MA,548
16-112-FI,Suspicious Vehicle,5,RAINVILLE,ST,BRO,BROCKTON,MA,577
16-113-FI,Other,62,LIVINGSTON,RD,BRO,BROCKTON,MA,544
16-116-FI,Suspicious Vehicle,68,SHARON,ST,BRO,BROCKTON,MA,544
16-117-FI,"RETALIATION, FIRE-ARMED",50,LAWN,ST,BRO,BROCKTON,MA,407
17-1-FI,Traffic Post,335,MAIN,ST,BRO,BROCKTON,MA,437
17-2-FI,DRUG ACTIVITY,115,CLINTON,ST,BRO,BROCKTON,MA,503
17-3-FI,Police Information,87,AUBURN,ST,BRO,BROCKTON,MA,557
17-4-FI,Suspicious Activity,327,CENTRE,ST,BRO,BROCKTON,MA,311
17-5-FI,Police Information,90,MELROSE,AVE,BRO,BROCKTON,MA,548
17-7-FI,FIREARMS POSSESSION,7,COMMERCIAL,ST,BRO,BROCKTON,MA,548
17-8-FI,Police Information - POSSIBLE NARCOTICS ACTIVITY,26,TRACK,ST,BRO,BROCKTON,MA,548
17-9-FI,Police Information,820,WARREN,AVE,BRO,BROCKTON,MA,347
17-10-FI,Suspicious Activity,105,N MAIN,ST,BRO,BROCKTON,MA,446
17-11-FI,Other,32,CLIFFORD,AVE,BRO,BROCKTON,MA,389
17-12-FI,Suspicious Activity,1015,MAIN,ST,BRO,BROCKTON,MA,535
17-13-FI,SUSPECTED DRUG DEALING,210,PLAIN,ST,BRO,BROCKTON,MA,535
17-14-FI,SUSPECTED NARCOTICS ACTIVITY,60,WARREN,AVE,BRO,BROCKTON,MA,548
17-15-FI,Suspicious Vehicle,200,LINWOOD,ST,BRO,BROCKTON,MA,535
17-16-FI,SUSPECTED DRUG DEALING,71,BURROUGHS,RD,BRO,BROCKTON,MA,535
17-17-FI,Suspicious Vehicle,27,ALLEN,ST,BRO,BROCKTON,MA,340
17-18-FI,Suspicious Vehicle,189,CLINTON,ST,BRO,BROCKTON,MA,535
17-19-FI,MOTOR VEHICLE STOP,120,PLEASANT,ST,BRO,BROCKTON,MA,531
17-20-FI,Police Information - POSSIBLE DRUG ACTIVITY,55,CITY HALL,SQ,BRO,BROCKTON,MA,548
17-22-FI,"OFFICER SAFETY - MANSLAUGHTER, MULTIPLE A&B ON CO'S",24,BELMONT,CT,BRO,BROCKTON,MA,548
17-22-FI,Police Information,18,GROVE,ST,BRO,BROCKTON,MA,548
17-30-FI,Police Information,26,LONG POND,RD,PLY,PLYMOUTH,MA,548
17-23-FI,Police Information,149,FOREST,AVE,BRO,BROCKTON,MA,573
17-24-FI,Police Information - SUSPECTED NARCOTICS ACTIVITY,1291,MAIN,ST,BRO,BROCKTON,MA,548
17-25-FI,SUSPECTED DRUG HOUSE,31,FALCONER,AVE,BRO,BROCKTON,MA,535
17-26-FI,Police Information,110,CARL,AVE,BRO,BROCKTON,MA,544
17-27-FI,Suspicious Activity,60,MARKET,ST,BRO,BROCKTON,MA,479
17-28-FI,VEHICLE PURSUIT,549,COPELAND,ST,BRO,BROCKTON,MA,535
17-29-FI,VEHICLE BEING USED TO SELL DRUGS,33,MENLO,ST,BRO,BROCKTON,MA,535
17-31-FI,DRUG HOUSE,4,HILL,PL,BRO,BROCKTON,MA,535
17-32-FI,Traffic Post,705,WARREN,AVE,BRO,BROCKTON,MA,535
17-34-FI,Suspicious Activity,,WILLIAMS,AVE,BRO,BROCKTON,MA,479
17-35-FI,Suspicious Activity,,,,BRO,BROCKTON,MA,479
17-37-FI,Suspicious Vehicle,311,W ELM,ST,BRO,BROCKTON,MA,503
17-36-FI,OFFICER SAFETY -- SHOOTING INCIDENT,85,PARKER,ST,BRO,BROCKTON,MA,548
17-38-FI,Suspicious Person,570,BELMONT,ST,BRO,BROCKTON,MA,571
17-39-FI,Suspicious Vehicle,,LOUCRAFT,AVE,BRO,BROCKTON,MA,574
17-42-FI,FAMILY MEMBERS/NARCOTICS ASSOCIATES,31,FALCONER,AVE,BRO,BROCKTON,MA,548
17-40-FI,Police Information -  SUSPECTED NARCOTICS ACTIVITY,314,SOUTHFIELD,DR,BRO,BROCKTON,MA,548
17-41-FI,Suspicious Activity,80,WINTHROP,ST,BRO,BROCKTON,MA,479
17-43-FI,SUSPECTED DRUG ACTIVITY,336,GROVE,ST,BRO,BROCKTON,MA,544
17-44-FI,Suspicious Vehicle,180,N MAIN,ST,BRO,BROCKTON,MA,557
17-45-FI,Suspicious Activity,,,,BRO,BROCKTON,MA,314
17-46-FI,Suspicious Vehicle,240,E ASHLAND,ST,BRO,BROCKTON,MA,535
17-47-FI,Suspicious Activity,124,PLEASANT,ST,BRO,BROCKTON,MA,548
17-47-FI,Suspicious Activity,31,FALCONER,AVE,BRO,BROCKTON,MA,548
17-48-FI,Suspicious Activity,40,FARRINGTON,ST,BRO,BROCKTON,MA,479
17-49-FI,Other,640,PLAIN,ST,BRO,BROCKTON,MA,415
17-50-FI,Suspicious Person,,,,BRO,BROCKTON,MA,548
17-51-FI,Police Information,755,CRESCENT,ST,BRO,BROCKTON,MA,507
17-52-FI,Police Information,99,COURT,ST,BRO,BROCKTON,MA,548
17-53-FI,Suspicious Activity,70,WALNUT,ST,BRO,BROCKTON,MA,479
17-54-FI,MOTOR VEHICLE STOP,,L,ST,BRO,BROCKTON,MA,479
17-56-FI,"HOSTORY OF FORGERY, GA WMS, NOT EXTRADITABLE",97,BOYLSTON,ST,BRO,BROCKTON,MA,548
17-61-FI,Police Information,69,BELLEVUE,AVE,BRO,BROCKTON,MA,482
17-57-FI,Police Information,758,MAIN,ST,BRO,BROCKTON,MA,569
17-59-FI,Police Information,105,WARREN,AVE,BRO,BROCKTON,MA,544
17-60-FI,Police Information,391,WESTGATE,DR,BRO,BROCKTON,MA,548
17-60-FI,SUSPECTED DRUG ACTIVITY BY GRISSETT,391,WESTGATE,DR,BRO,BROCKTON,MA,548
17-60-FI,Police Information,1005,BELMONT,ST,BRO,BROCKTON,MA,548
17-62-FI,Suspicious Activity,35,EAGLE,AVE,BRO,BROCKTON,MA,446
17-64-FI,Suspicious Vehicle,33,N MAIN,ST,BRO,BROCKTON,MA,505
17-65-FI,Suspicious Person,1,FREDERICK DOUGLAS,AVE,BRO,BROCKTON,MA,571
17-66-FI,FRAUDULENT CHECK,500,MAIN,ST,BRO,BROCKTON,MA,548
17-67-FI,Police Information,217,MONTELLO,ST,BRO,BROCKTON,MA,548
17-69-FI,Suspicious Activity - NARCOTICS,39,WOODARD,AVE,BRO,BROCKTON,MA,548
17-70-FI,"VIOLENT TENDENCIES, NON-EXTRADITABLE WARRANT",10,MEADOWBROOK,RD,BRO,BROCKTON,MA,548
17-73-FI,ONGOING FUED,12,AUBURN,ST,BRO,BROCKTON,MA,535
17-71-FI,Suspicious Vehicle,240,E ASHLAND,ST,BRO,BROCKTON,MA,548
17-72-FI,CARS ASSOCIATED W/ GUNS AND DRUGS,27,PERKINS,ST,BRO,BROCKTON,MA,548
17-74-FI,SUSPECTED DRUG HOUSE,227,BELMONT,ST,BRO,BROCKTON,MA,535
17-75-FI,Police Information,206,PINE GROVE,DR,BRO,BROCKTON,MA,548
17-76-FI,OFFICER SAFETY -- FIREARM IN TRUNK,25,MOODY,ST,BRO,BROCKTON,MA,549
17-77-FI,Police Information,228,BELMONT,ST,BRO,BROCKTON,MA,548
17-78-FI,THREATS TO POLICE,59,FULLER,ST,BRO,BROCKTON,MA,548
17-81-FI,Suspicious Vehicle/ GANG ACTIVITY,4,HOVENDON,AVE,BRO,BROCKTON,MA,407
17-80-FI,Police Information - GANG RELATED,2,E ASHLAND,ST,BRO,BROCKTON,MA,548
17-82-FI,DRUG/FLOP HOUSE,34,SHERIDAN,ST,BRO,BROCKTON,MA,535
17-83-FI,VEHICLE USED TO SELL DRUGS,39,HARVARD,ST,BRO,BROCKTON,MA,535
17-85-FI,SEX OFFENDER,26,SHEPPARD,AVE,BRO,BROCKTON,MA,535
17-84-FI,PROSTITUTION,105,N MAIN,ST,BRO,BROCKTON,MA,548
17-86-FI,Police Information,196,PLEASANT,ST,BRO,BROCKTON,MA,443
17-87-FI,Suspicious Person,81,WARREN,AVE,BRO,BROCKTON,MA,548
17-88-FI,Suspicious Person,571,N MAIN,ST,BRO,BROCKTON,MA,493
17-94-FI,Police Information,102,OAK,LN,BRO,BROCKTON,MA,482
17-89-FI,Ongoing Narcotics Activity,82,LOWELL,ST,BRO,BROCKTON,MA,548
17-90-FI,Police Information,,NORWOOD,ST,BRO,BROCKTON,MA,503
17-91-FI,SUSPECTED DRUG DEALING,56,GLENWOOD,ST,BRO,BROCKTON,MA,535
17-92-FI,Traffic Post,570,BELMONT,ST,BRO,BROCKTON,MA,407
17-93-FI,Suspicious Person,81,WARREN,AVE,BRO,BROCKTON,MA,446
17-95-FI,Suspicious Person,66,PLEASANT,ST,BRO,BROCKTON,MA,482
17-96-FI,STATEMENTS ABOUT POLICE HARASSMENT,,,,BRO,BROCKTON,MA,548
17-97-FI,DISTRUBUTION OF NARCOCTICS,66,MONTELLO,ST,BRO,BROCKTON,MA,544
17-98-FI,Police Information,387,PLAIN,ST,BRO,BROCKTON,MA,548
17-99-FI,GANG OF YOUTHS,51,NILSSON,ST,BRO,BROCKTON,MA,407
17-100-FI,"SAFETY - CONCEALED KNIFE, HANDCUFF KEY",221,OAK,ST,BRO,BROCKTON,MA,548
17-105-FI,HABITUAL CAR THIEF,9,HIGHLAND,ST,BRO,BROCKTON,MA,535
17-101-FI,MV PURSUIT IN RENTAL VEHICLE,,S LEYDEN,ST,BRO,BROCKTON,MA,548
17-102-FI,Suspicious Activity - NARCOTICS,46,MONTELLO,ST,BRO,BROCKTON,MA,544
17-104-FI,Police Information -- SUSPICIOUS RENTALS,1,CENTRE,ST,BRO,BROCKTON,MA,548
17-104-FI,Police Information,,BX 455,,AVO,AVON,MA,548
17-108-FI,Suspicious Person,658,PLEASANT,ST,BRO,BROCKTON,MA,548
17-109-FI,DRUG ACTIVITY,96,GROVE,ST,BRO,BROCKTON,MA,535
17-110-FI,SUSPECTED DRUG DEALING,9,HIGHLAND,ST,BRO,BROCKTON,MA,535
17-111-FI,Suspicious Vehicle,88,W ASHLAND,ST,BRO,BROCKTON,MA,535
17-112-FI,Suspicious Person,12,WALNUT,ST,BRO,BROCKTON,MA,557
17-113-FI,Police Information - PERKINS AVE ASSOCIATE,416,MAIN,ST,BRO,BROCKTON,MA,548
17-113-FI,ATTACHED PLATES OUTSIDE MICHAEL VEIGA'S HOUSE,80,WINTHROP,ST,BRO,BROCKTON,MA,548
17-114-FI,Police Information,74,CENTRE,ST,BRO,BROCKTON,MA,544
17-115-FI,CARRYING LARGE KNIFE,,PADDY,LN,BRO,BROCKTON,MA,548
17-118-FI,VIOLENT OFFENDER FROM FLORIDA,74,WARREN,AVE,BRO,BROCKTON,MA,548
17-119-FI,Suspicious Vehicle,253,E ASHLAND,ST,BRO,BROCKTON,MA,535
17-120-FI,Suspicious Activity,7,CAMDEN,ST,BRO,BROCKTON,MA,531
17-123-FI,Suspicious Activity - CRUISING YASSO AT 0300HRS,110,GREEN,ST,BRO,BROCKTON,MA,548
17-124-FI,GANG INTELL,848,MONTELLO,ST,BRO,BROCKTON,MA,503
17-125-FI,Suspicious Activity,165,CARL,AVE,BRO,BROCKTON,MA,577
17-127-FI,"OPERATED BY DRUG DEALER W/ CODE 4 HISTORY, SUSPENDED LIC",118,NILSSON,ST,BRO,BROCKTON,MA,579
17-128-FI,VEHICLE PURSUIT (BRIDGEWATER),,SOUTH,ST,BRO,BROCKTON,MA,535
17-129-FI,POSSIBLY OPERATED BY 44 DEALER S70458854,20,FOSTER,ST,BRO,BROCKTON,MA,548
17-130-FI,DRUG ACTIVITY MV STOP,324,MONTELLO,ST,BRO,BROCKTON,MA,544
17-131-FI,Suspicious Person,106,PROSPECT,ST,BRO,BROCKTON,MA,547
17-133-FI,Police Information,,,,BRO,BROCKTON,MA,548
17-134-FI,DRUG ACTIVITY,4,KENWOOD,ST,BRO,BROCKTON,MA,544
17-135-FI,Suspicious Vehicle,1724,MAIN,ST,BRO,BROCKTON,MA,535
17-136-FI,Suspicious Activity,35,SOUTH,ST,BRO,BROCKTON,MA,544
17-140-FI,Police Information - POSSIBLE GUN,195,W ELM,ST,BRO,BROCKTON,MA,548
17-137-FI,Police Information,140,CLIFTON,AVE,BRO,BROCKTON,MA,557
17-138-FI,Police Information,,LONGWOOD,AVE,BRO,BROCKTON,MA,548
17-139-FI,Directed Patrol,373,WARREN,AVE,BRO,BROCKTON,MA,574
17-141-FI,Police Information,7,COMMERCIAL,ST,BRO,BROCKTON,MA,389
17-142-FI,Suspicious Vehicle,220,COPELAND,ST,BRO,BROCKTON,MA,548
17-143-FI,Police Information,391,WESTGATE,DR,BRO,BROCKTON,MA,548
17-144-FI,Suspicious Activity,23,MONTELLO,ST,BRO,BROCKTON,MA,557
17-149-FI,Police Information,,ANANIA,TER,BRO,BROCKTON,MA,443
17-145-FI,Police Information,385,WESTGATE,DR,BRO,BROCKTON,MA,544
17-146-FI,Police Information -- GUNS AND DRUGS FOUND IN CAR,,LONGWOOD,AVE,BRO,BROCKTON,MA,548
17-147-FI,Police Information,25,CARLETON,ST,BRO,BROCKTON,MA,536
17-148-FI,Police Information - VOID/COMPARTMENT BEHIND GLOVE BOX,54,N MAIN,ST,BRO,BROCKTON,MA,548
17-151-FI,Suspicious Person - LIKELY NARCOTICS CUSTOMER,29,GODDARD,RD,BRO,BROCKTON,MA,548
17-152-FI,PROSTITUTION,1,W ELM,ST,BRO,BROCKTON,MA,548
17-153-FI,Police Information,486,PEARL,ST,BRO,BROCKTON,MA,548
17-156-FI,Suspicious Activity - NARCOTICS CUSTOMER?,151,COUNTRY CLUB,LN,BRO,BROCKTON,MA,548
17-154-FI,Police Information,54,N MAIN,ST,BRO,BROCKTON,MA,544
17-155-FI,Police Information,689,MAIN,ST,BRO,BROCKTON,MA,548
17-157-FI,Directed Patrol,81,WARREN,AVE,BRO,BROCKTON,MA,332
17-158-FI,Directed Patrol,81,WARREN,AVE,BRO,BROCKTON,MA,332
17-159-FI,Directed Patrol,81,WARREN,AVE,BRO,BROCKTON,MA,332
17-161-FI,POSSIBLE NARCOTICS SALE,835,BELMONT,ST,BRO,BROCKTON,MA,548
17-160-FI,BOP AND WARRANT UNDER DIFFERENT NAME,147,WINTHROP,ST,BRO,BROCKTON,MA,548
17-162-FI,Suspicious Vehicle,81,WARREN,AVE,BRO,BROCKTON,MA,557
17-163-FI,Suspicious Activity,,CROWELL,ST,BRO,BROCKTON,MA,548
17-167-FI,Police Information,64,COMMERCIAL,ST,BRO,BROCKTON,MA,535
17-168-FI,Suspicious Vehicle(POSSIBLE DRUG DEALING),134,CENTRE,ST,BRO,BROCKTON,MA,535
17-169-FI,VEHICLE BEING USED TO DEAL DRUGS,99,PINE,AVE,BRO,BROCKTON,MA,535
17-170-FI,Suspicious Activity,54,GLENWOOD,ST,BRO,BROCKTON,MA,446
17-172-FI,Suspicious Person - NARCOTICS SALES,20,N MANCHESTER,ST,BRO,BROCKTON,MA,548
17-173-FI,Suspicious Vehicle,28,PINE,AVE,BRO,BROCKTON,MA,535
17-174-FI,Suspicious Activity,755,CRESCENT,ST,BRO,BROCKTON,MA,507
17-175-FI,Suspicious Activity,133,N MAIN,ST,BRO,BROCKTON,MA,544
17-176-FI,Suspicious Activity,127,PLEASANT,ST,BRO,BROCKTON,MA,544
17-177-FI,Suspicious Vehicle,60,WARREN,AVE,BRO,BROCKTON,MA,281
17-178-FI,Police Information,29,WILMINGTON,ST,BRO,BROCKTON,MA,548
17-179-FI,Other,24,EVANS,ST,OTH,NEWPORT,RI,389
17-180-FI,Police Information,142,BELMONT,ST,BRO,BROCKTON,MA,531
17-181-FI,SUSPECTED DRUG DEALING,206,PINE,ST,BRO,BROCKTON,MA,535
17-182-FI,Police Information,,STILLMAN,AVE,BRO,BROCKTON,MA,507
17-183-FI,DRUG DEALERS,1109,MAIN,ST,BRO,BROCKTON,MA,535
17-184-FI,Suspicious Vehicle,932,N MONTELLO,ST,BRO,BROCKTON,MA,281
17-185-FI,Police Information,85,TREMONT,ST,BRO,BROCKTON,MA,507
17-186-FI,Suspicious Vehicle,31,PERKINS,AVE,BRO,BROCKTON,MA,389
17-187-FI,SUSPECTED DRUG DEALING,26,CHURCHILL,AVE,BRO,BROCKTON,MA,535
17-188-FI,Police Information,85,TREMONT,ST,BRO,BROCKTON,MA,548
17-190-FI,Suspicious Activity,64,HAVERHILL,ST,BRO,BROCKTON,MA,415
17-191-FI,Police Information,385,N MONTELLO,ST,BRO,BROCKTON,MA,531
17-196-FI,POSSIBLE GANG FUED,391,CRESCENT,ST,BRO,BROCKTON,MA,535
17-193-FI,Suspicious Vehicle,327,N PEARL,ST,BRO,BROCKTON,MA,562
17-194-FI,Suspicious Person,139,PLEASANT,ST,BRO,BROCKTON,MA,389
17-195-FI,Suspicious Activity,14,BARRY,ST,BRO,BROCKTON,MA,455
17-198-FI,ASSOCIATES OF CLASS A DISTRIBUTORS,715,MONTELLO,ST,BRO,BROCKTON,MA,548
17-199-FI,PERKINS AVE GANG MEMBER,258,DOVER,ST,BRO,BROCKTON,MA,535
17-200-FI,Police Information,,STILLMAN,AVE,BRO,BROCKTON,MA,548
17-201-FI,Suspicious Activity,30,EDWARD,ST,BRO,BROCKTON,MA,544
17-202-FI,DRUG ACTIVITY,23,RIDGEWAY,CT,BRO,BROCKTON,MA,544
17-203-FI,Suspicious Vehicle,13,PINE,ST,BRO,BROCKTON,MA,535
17-204-FI,DRUG DEALER,75,MONTELLO,ST,BRO,BROCKTON,MA,535
17-205-FI,DRIVER-STRONG DISLIKE TO POLICE,99,PLYMOUTH,ST,BRO,BROCKTON,MA,535
17-210-FI,GANG ACTIVITY,197,FLORENCE,ST,BRO,BROCKTON,MA,548
17-206-FI,GUN ACTIVITY,27,GROVE,ST,BRO,BROCKTON,MA,407
17-207-FI,Traffic Post,1133,MONTELLO,ST,BRO,BROCKTON,MA,437
17-208-FI,Police Information,36,DAVIDS,ST,BRO,BROCKTON,MA,437
17-209-FI,Suspicious Vehicle,31,SILVER,RD,BRO,BROCKTON,MA,437
17-211-FI,Suspicious Activity,2,WARREN,AVE,BRO,BROCKTON,MA,503
17-212-FI,Police Information,507,WARREN,AVE,BRO,BROCKTON,MA,347
17-215-FI,Other,708,N MONTELLO,ST,BRO,BROCKTON,MA,347
17-217-FI,Other,900,BELMONT,ST,BRO,BROCKTON,MA,347
17-220-FI,Police Information,195,PLEASANT,ST,BRO,BROCKTON,MA,548
17-221-FI,Police Information,460,BELMONT,ST,BRO,BROCKTON,MA,544
17-222-FI,Traffic Post,99,COPELAND,ST,BRO,BROCKTON,MA,437
17-223-FI,Police Information,599,FOREST,AVE,BRO,BROCKTON,MA,548
17-224-FI,Traffic Post/POSSIBLE NARCOTICS OFFENSE,34,JAMES,ST,BRO,BROCKTON,MA,437
17-226-FI,Suspicious Person,740,N MAIN,ST,BRO,BROCKTON,MA,389
17-227-FI,Suspicious Person,90,SPRING,ST,BRO,BROCKTON,MA,389
17-228-FI,Other,,,,BRO,BROCKTON,MA,348
17-229-FI,Suspicious Activity,110,GREEN,ST,BRO,BROCKTON,MA,372
17-230-FI,Police Information,,,,BRO,BROCKTON,MA,348
17-231-FI,Suspicious Person,70,WARREN,AVE,BRO,BROCKTON,MA,334
17-232-FI,Police Information,1123,MAIN,ST,BRO,BROCKTON,MA,544
17-235-FI,Suspicious Person,66,SPRING,ST,BRO,BROCKTON,MA,463
17-236-FI,Suspicious Activity,139,PLEASANT,ST,BRO,BROCKTON,MA,415
17-237-FI,Suspicious Activity,139,PLEASANT,ST,BRO,BROCKTON,MA,503
17-238-FI,Suspicious Vehicle,124,PLEASANT,ST,BRO,BROCKTON,MA,415
17-240-FI,"GANG, TRAFFICKING, GUNS",116,BARTLETT,ST,BRO,BROCKTON,MA,548
17-241-FI,Police Information,17,PROSPECT,ST,BRO,BROCKTON,MA,368
17-242-FI,Suspicious Activity,139,PLEASANT,ST,BRO,BROCKTON,MA,334
17-243-FI,Suspicious Activity,139,PLEASANT,ST,BRO,BROCKTON,MA,334
17-244-FI,Suspicious Person,139,PLEASANT,ST,BRO,BROCKTON,MA,334
17-247-FI,Suspicious Person,139,PLEASANT,ST,BRO,BROCKTON,MA,334
17-248-FI,Suspicious Person,139,PLEASANT,ST,BRO,BROCKTON,MA,334
17-249-FI,Suspicious Person,139,PLEASANT,ST,BRO,BROCKTON,MA,334
17-250-FI,Suspicious Person,46,SPRING,ST,BRO,BROCKTON,MA,334
17-251-FI,Suspicious Person,39,SPRING,ST,BRO,BROCKTON,MA,334
17-252-FI,Suspicious Activity,661,N MAIN,ST,BRO,BROCKTON,MA,334
17-253-FI,Suspicious Vehicle,26,JAMES,ST,BRO,BROCKTON,MA,535
17-254-FI,Suspicious Activity,15,CROWELL,ST,BRO,BROCKTON,MA,389
17-288-FI,Police Information,31,HOLLIS,ST,BRO,BROCKTON,MA,482
17-256-FI,Suspicious Person,111,HILL,ST,BRO,BROCKTON,MA,347
17-260-FI,Suspicious Activity,1,WALNUT,ST,BRO,BROCKTON,MA,347
17-261-FI,Suspicious Activity,46,SPRING,ST,BRO,BROCKTON,MA,347
17-262-FI,SHOPLIFTING SUSPECT,689,MAIN,ST,BRO,BROCKTON,MA,535
17-270-FI,CODE 4/ OFFICER SAFETY,121,DREW,AVE,BRO,BROCKTON,MA,535
17-263-FI,Suspicious Vehicle,257,QUINCY,ST,BRO,BROCKTON,MA,368
17-264-FI,Suspicious Vehicle,31,PERKINS,AVE,BRO,BROCKTON,MA,368
17-265-FI,Suspicious Activity,139,PLEASANT,ST,BRO,BROCKTON,MA,372
17-266-FI,Suspicious Activity,139,PLEASANT,ST,BRO,BROCKTON,MA,350
17-267-FI,Suspicious Person,350,N MAIN,ST,BRO,BROCKTON,MA,334
17-268-FI,Suspicious Activity,139,PLEASANT,ST,BRO,BROCKTON,MA,350
17-269-FI,Suspicious Person,77,SPRING,ST,BRO,BROCKTON,MA,334
17-272-FI,Suspicious Vehicle,294,WARREN,AVE,BRO,BROCKTON,MA,350
17-271-FI,Police Information,125,OTIS,ST,BRO,BROCKTON,MA,544
17-273-FI,Police Information,232,ARTHUR PAQUIN,WAY,BRO,BROCKTON,MA,507
17-276-FI,Suspicious Vehicle,888,MAIN,ST,BRO,BROCKTON,MA,415
17-277-FI,Suspicious Person,385,WESTGATE,DR,BRO,BROCKTON,MA,446
17-278-FI,Suspicious Vehicle,53,N MAIN,ST,BRO,BROCKTON,MA,405
17-279-FI,Suspicious Vehicle,13,GLENWOOD,ST,BRO,BROCKTON,MA,350
17-280-FI,Suspicious Vehicle,198,BARTLETT,ST,BRO,BROCKTON,MA,334
17-281-FI,Suspicious Activity,1128,N MAIN,ST,BRO,BROCKTON,MA,380
17-282-FI,Suspicious Vehicle,,REYNOLDS MEM,HWY,BRO,BROCKTON,MA,503
17-283-FI,Suspicious Vehicle,1015,MAIN,ST,BRO,BROCKTON,MA,503
17-284-FI,Suspicious Person,166,GREEN,ST,BRO,BROCKTON,MA,334
17-287-FI,Suspicious Vehicle,146,GRAFTON,ST,BRO,BROCKTON,MA,503
17-291-FI,Suspicious Vehicle,42,LINDEN,ST,BRO,BROCKTON,MA,368
18-1-FI,Suspicious Activity,140,COLONEL BELL,DR,BRO,BROCKTON,MA,507
18-4-FI,Suspicious Activity,18,RIDGEWAY,CT,BRO,BROCKTON,MA,544
18-5-FI,SUSPECTED DRUG DEALING,49,MENLO,AVE,BRO,BROCKTON,MA,535
18-6-FI,Other,316,N PEARL,ST,BRO,BROCKTON,MA,544
18-7-FI,Police Information,874,N MAIN,ST,BRO,BROCKTON,MA,443
18-8-FI,Police Information,154,FORD,ST,BRO,BROCKTON,MA,443
18-9-FI,GUN/GANG Activity,12,TERMINAL,PL,BRO,BROCKTON,MA,407
18-10-FI,Suspicious Vehicle,31,HIGHLAND,ST,BRO,BROCKTON,MA,531
18-12-FI,"DRUGS, GUNS",391,WESTGATE,DR,BRO,BROCKTON,MA,548
18-13-FI,Police Information,126,COURT,ST,BRO,BROCKTON,MA,548
18-14-FI,Police Information,38,VEGA,AVE,BRO,BROCKTON,MA,507
18-15-FI,Suspicious Activity - POSSIBLE DRUG DEAL,,COUNTRY CLUB,LN,BRO,BROCKTON,MA,548
18-16-FI,Police Information - DRUG DEALERS,,DEANNA,RD,BRO,BROCKTON,MA,548
18-17-FI,Suspicious Vehicle,21,AUGUSTA,AVE,BRO,BROCKTON,MA,535
18-18-FI,Suspicious Vehicle,39,CLINTON,ST,BRO,BROCKTON,MA,579
18-19-FI,Police Information - ALLEGED DRUG SALES,249,BELMONT,AVE,BRO,BROCKTON,MA,548
18-20-FI,Suspicious Vehicle,90,SHERIDAN,ST,BRO,BROCKTON,MA,415
18-21-FI,Suspicious Activity,81,WARREN,AVE,BRO,BROCKTON,MA,557
18-22-FI,Suspicious Activity,163,N CARY,ST,BRO,BROCKTON,MA,482
18-25-FI,Suspicious Activity,1,MAIN,ST,BRO,BROCKTON,MA,557
18-23-FI,Police Information,138,BOYLSTON,ST,BRO,BROCKTON,MA,544
18-24-FI,DRUG DEALING,115,PACKARD,WAY,BRO,BROCKTON,MA,535
18-26-FI,MOTOR PURSUIT,19,HILLBERG,AVE,BRO,BROCKTON,MA,503
18-27-FI,Police Information,40,FARRINGTON,ST,BRO,BROCKTON,MA,389
18-28-FI,"VERY LARGE, MENTALLY ILL, WILL FIGHT MULTIPLE OFFICERS",50,CENTRE,ST,BRO,BROCKTON,MA,548
18-31-FI,Directed Patrol,81,WARREN,AVE,BRO,BROCKTON,MA,415
18-30-FI,Suspicious Vehicle,155,W ELM,ST,BRO,BROCKTON,MA,574
18-32-FI,Other,160,N MAIN,ST,BRO,BROCKTON,MA,389
18-33-FI,Other,160,MAIN,ST,BRO,BROCKTON,MA,389
18-34-FI,Other,160,N MAIN,ST,BRO,BROCKTON,MA,389
18-35-FI,Suspicious Person,74,WARREN,AVE,BRO,BROCKTON,MA,506
18-37-FI,CAR STOP,1039,MAIN,ST,BRO,BROCKTON,MA,415
18-36-FI,Police Information,155,ARTHUR PAQUIN,WAY,BRO,BROCKTON,MA,507
18-38-FI,Suspicious Person,135,ELLIOT,ST,BRO,BROCKTON,MA,331
18-39-FI,Police Information,1005,BELMONT,ST,BRO,BROCKTON,MA,536
18-40-FI,Suspicious Person,5,COLONIAL,TER,BRO,BROCKTON,MA,548
18-41-FI,Police Information,354,MAIN,ST,BRO,BROCKTON,MA,531
18-43-FI,GANG/DRUG DEALERS,37,BELMONT,ST,BRO,BROCKTON,MA,535
18-44-FI,GANG ACTIVITY,165,MONTELLO,ST,BRO,BROCKTON,MA,503
18-45-FI,Police Information,103,PERKINS,ST,BRO,BROCKTON,MA,503
18-46-FI,Suspicious Vehicle,84,EAST,ST,BRO,BROCKTON,MA,415
18-53-FI,Suspicious Vehicle - DRUG RELATED,206,PERKINS,AVE,BRO,BROCKTON,MA,548
18-47-FI,Other,260,BATTLES FARM,DR,BRO,BROCKTON,MA,345
18-49-FI,DRUG ARREST/WHITMAN,,,,BRO,BROCKTON,MA,535
18-50-FI,Police Information,68,HARVARD,ST,BRO,BROCKTON,MA,503
18-51-FI,Police Information,800,W CHESTNUT,ST,BRO,BROCKTON,MA,503
18-52-FI,Suspicious Person,364,CENTRE,ST,BRO,BROCKTON,MA,365
18-54-FI,GANG ACTIVITY,73,WESTON,ST,BRO,BROCKTON,MA,407
18-55-FI,GANG INTELL,123,ASH,ST,BRO,BROCKTON,MA,503
18-56-FI,GANG MEMBER,244,PLEASANT,ST,BRO,BROCKTON,MA,535
18-57-FI,Police Information,57,N MAIN,ST,BRO,BROCKTON,MA,544
18-58-FI,"Suspicious Vehicle - OPERATOR SUSPENDED, WMS",,COUNTRY CLUB,LN,BRO,BROCKTON,MA,548
18-59-FI,Police Information,,UNKNOWN,,BOS,BOSTON,MA,544
18-60-FI,Suspicious Activity,90,LEYDEN,PARK,BRO,BROCKTON,MA,503
18-62-FI,Police Information,35,WESTON,ST,BRO,BROCKTON,MA,557
18-64-FI,WAITING FOR NARCOTICS TRANSACTION,,COUNTRY CLUB,DR,BRO,BROCKTON,MA,548
18-63-FI,Police Information,52,HAVERHILL,ST,BRO,BROCKTON,MA,548
18-65-FI,DRUG DEALER,87,PARK,RD,BRO,BROCKTON,MA,503
18-66-FI,"FIO TO LINK FATHER, SONS, VEHICLES",105,WARREN,AVE,BRO,BROCKTON,MA,548
18-67-FI,Suspicious Vehicle,,MAPLE,AVE,BRO,BROCKTON,MA,544
18-69-FI,SUSPECTED DRUG BUYERS,16,ELLIS,ST,BRO,BROCKTON,MA,535
18-71-FI,Other,1823,PLEASANT,ST,FLL,FALL RIVER,MA,389
18-72-FI,"THIEF, DRUG DEALER FROM LYNN",169,PLEASANT,ST,BRO,BROCKTON,MA,548
18-73-FI,"BOSTON GUN KID, WMS",,AUNA,DR,BRO,BROCKTON,MA,548
18-76-FI,MIDDLEBORO COKE DEALER,1039,MAIN,ST,BRO,BROCKTON,MA,548
18-77-FI,Police Information,8,GRAND,ST,BRO,BROCKTON,MA,552
18-79-FI,Suspicious Person,150,SPARK,ST,BRO,BROCKTON,MA,443
18-80-FI,Police Information,51,BELMONT,AVE,BRO,BROCKTON,MA,531
18-81-FI,Suspicious Vehicle/GUNS/DRUGS,74,WARREN,AVE,BRO,BROCKTON,MA,407
18-82-FI,Police Information - NARCOTICS ASSOCIATE,1038,BELMONT,ST,BRO,BROCKTON,MA,548
18-83-FI,Police Information,10,COMMERCIAL,ST,BRO,BROCKTON,MA,548
18-85-FI,Police Information,689,MAIN,ST,BRO,BROCKTON,MA,535
18-86-FI,GANG/GUN CONNECTION,7,COMMERCIAL,ST,BRO,BROCKTON,MA,407
18-87-FI,Suspicious Activity,52,HAVERHILL,ST,BRO,BROCKTON,MA,492
18-88-FI,Police Information,180,OAK,ST,BRO,BROCKTON,MA,557
18-89-FI,"POSSIBLE DRUG DEALER, POSSIBLE HIDE",140,W CHESTNUT,ST,BRO,BROCKTON,MA,548
18-93-FI,Suspicious Activity,1449,MAIN,ST,BRO,BROCKTON,MA,548
18-91-FI,SUSPECTED DRUG DEALING,14,MANOMET,ST,BRO,BROCKTON,MA,535
18-92-FI,Police Information,154,ARTHUR PAQUIN,WAY,BRO,BROCKTON,MA,507
18-94-FI,CONCEALED KNIFE,45,OAKDALE,ST,BRO,BROCKTON,MA,577
18-95-FI,Suspicious Person,1267,MAIN,ST,BRO,BROCKTON,MA,576
18-96-FI,Suspicious Activity,74,CENTRE,ST,BRO,BROCKTON,MA,535
18-97-FI,Police Information,224,MORAINE,ST,BRO,BROCKTON,MA,588
18-98-FI,STREET WALKER,1,TURNER,ST,BRO,BROCKTON,MA,548
18-99-FI,SUSPECTED DRUG DEALING,326,MENLO,ST,BRO,BROCKTON,MA,535
18-100-FI,Other,113,GREEN,ST,BRO,BROCKTON,MA,389
18-101-FI,Police Information,74,N MONTELLO,ST,BRO,BROCKTON,MA,594
18-103-FI,GANG MEMBER ASSOCIATED WITH VEHICLE,1240,WARREN,AVE,BRO,BROCKTON,MA,577
18-105-FI,Suspicious Vehicle,1380,MAIN,ST,BRO,BROCKTON,MA,535
18-108-FI,PROSTITUTION,139,PLEASANT,ST,BRO,BROCKTON,MA,548
18-107-FI,POSSIBLE PROSTITUTION,62,N MAIN,ST,BRO,BROCKTON,MA,548
18-109-FI,DRUG DEAL,56,CHESTER,AVE,BRO,BROCKTON,MA,548
18-110-FI,Suspicious Activity,30,N MAIN,ST,BRO,BROCKTON,MA,592
18-111-FI,Police Information - BOTH WITH NARCOTICS AND GUN CHARGES,51,REYNOLDS MEM,HWY,BRO,BROCKTON,MA,548
18-116-FI,Police Information,67,N WARREN,AVE,BRO,BROCKTON,MA,557
18-112-FI,Police Information,82,CARL,AVE,BRO,BROCKTON,MA,548
18-113-FI,Police Information,47,HIGHLAND,ST,BRO,BROCKTON,MA,548
18-114-FI,Police Information,64,HAVERHILL,ST,BRO,BROCKTON,MA,577
18-115-FI,Police Information,21,DRAKE,ST,BRO,BROCKTON,MA,557
18-117-FI,Suspicious Activity,43,HAVERHILL,ST,BRO,BROCKTON,MA,589
18-118-FI,UNREPORTED HOME INVASION,39,SOUTH,ST,BRO,BROCKTON,MA,407
18-119-FI,Police Information,382,N MAIN,ST,BRO,BROCKTON,MA,443
18-120-FI,Police Information,11,SNELL,PL,BRO,BROCKTON,MA,531
18-121-FI,"TRAFFICKING HISTORY, COMING OUT OF CUBE SMART",20,N MONTELLO,ST,BRO,BROCKTON,MA,548
18-122-FI,FOLLOWING AND RECORDING FEMALE,748,N MAIN,ST,BRO,BROCKTON,MA,548
18-125-FI,Police Information,388,BATTLES,ST,BRO,BROCKTON,MA,548
18-123-FI,"MONEY, BAGGIES, POSSIBLE HIDE",1084,BELMONT,ST,BRO,BROCKTON,MA,548
18-124-FI,ANILSON TEIXEIRA OFFICE LOCATION,130,ELLIOT,ST,BRO,BROCKTON,MA,548
18-126-FI,Police Information,226,PLEASANT,ST,BRO,BROCKTON,MA,548
18-127-FI,PERKINS AVE GANG MEMBER,54,N MAIN,ST,BRO,BROCKTON,MA,535
18-128-FI,Suspicious Person,64,HAVERHILL,ST,BRO,BROCKTON,MA,506
18-130-FI,Suspicious Vehicle,,CAMPANELLI IND,DR,BRO,BROCKTON,MA,548
18-131-FI,Suspicious Activity,20,WILSON,ST,BRO,BROCKTON,MA,375
18-132-FI,DRUG DEALERS,206,PINE,ST,BRO,BROCKTON,MA,535
18-133-FI,Suspicious Person,26,ADDISON,AVE,BRO,BROCKTON,MA,535
18-134-FI,Police Information,370,CENTRE,ST,BRO,BROCKTON,MA,503
18-135-FI,Traffic Post,64,SOUTH,ST,BRO,BROCKTON,MA,506
18-136-FI,Suspicious Vehicle,336,GROVE,ST,BRO,BROCKTON,MA,506
18-138-FI,Suspicious Vehicle,,BELMONT,AVE,BRO,BROCKTON,MA,592
18-139-FI,Suspicious Activity,,BELMONT,AVE,BRO,BROCKTON,MA,592
18-137-FI,Suspicious Vehicle,50,REYNOLDS MEM,HWY,BRO,BROCKTON,MA,506
18-140-FI,Suspicious Vehicle,140,PLEASANT,ST,BRO,BROCKTON,MA,506
18-141-FI,Suspicious Vehicle,2,JOHNSON,SQ,BRO,BROCKTON,MA,506
18-142-FI,Suspicious Vehicle,120,PLEASANT,ST,BRO,BROCKTON,MA,506
18-143-FI,Suspicious Vehicle,82,CARL,AVE,BRO,BROCKTON,MA,535
18-144-FI,Suspicious Vehicle,632,WARREN,AVE,BRO,BROCKTON,MA,506
18-145-FI,Suspicious Vehicle,163,N CARY,ST,BRO,BROCKTON,MA,506
18-147-FI,FIREARM RECOVERED,,WALNUT,AVE,BRO,BROCKTON,MA,503
18-148-FI,Suspicious Person,0,PLEASANT,ST,BRO,BROCKTON,MA,586
18-150-FI,Police Information,,REYNOLDS MEM,HWY,BRO,BROCKTON,MA,548
18-151-FI,Suspicious Vehicle,,OTIS,ST,BRO,BROCKTON,MA,548
18-152-FI,Suspicious Vehicle,294,WARREN,AVE,BRO,BROCKTON,MA,544
18-154-FI,Suspicious Vehicle,758,MAIN,ST,BRO,BROCKTON,MA,553
18-155-FI,Suspicious Person,80,HIGHLAND,ST,BRO,BROCKTON,MA,506
18-153-FI,NARCOTICS USERS,7,COMMERCIAL,ST,BRO,BROCKTON,MA,548
18-156-FI,Suspicious Vehicle,547,WESTGATE,DR,BRO,BROCKTON,MA,506
18-158-FI,Suspicious Person,648,OAK,ST,BRO,BROCKTON,MA,506
18-159-FI,Suspicious Person,1,L,ST,BRO,BROCKTON,MA,506
18-160-FI,Suspicious Vehicle,100,COPELAND,ST,BRO,BROCKTON,MA,548
18-162-FI,Suspicious Vehicle,791,WARREN,AVE,BRO,BROCKTON,MA,506
18-163-FI,Suspicious Person,244,N WARREN,AVE,BRO,BROCKTON,MA,506
18-164-FI,Suspicious Vehicle,80,HIGHLAND,ST,BRO,BROCKTON,MA,506
18-165-FI,Suspicious Vehicle,28,HAMILTON,ST,BRO,BROCKTON,MA,506
18-166-FI,Suspicious Vehicle,10,N MAIN,ST,BRO,BROCKTON,MA,506
18-167-FI,Suspicious Vehicle,31,FALCONER,AVE,BRO,BROCKTON,MA,535
18-168-FI,Suspicious Vehicle,1380,MAIN,ST,BRO,BROCKTON,MA,507
18-169-FI,Suspicious Vehicle,30,AUNA,DR,BRO,BROCKTON,MA,506
18-170-FI,Suspicious Vehicle,212,FOREST,AVE,BRO,BROCKTON,MA,506
18-171-FI,Suspicious Vehicle,52,E NILSSON,ST,BRO,BROCKTON,MA,506
19-6-FI,Suspicious Activity,82,S FULLER,ST,BRO,BROCKTON,MA,587
19-1-FI,Suspicious Vehicle,1,SHERIDAN,ST,BRO,BROCKTON,MA,535
19-2-FI,Suspicious Vehicle,,WAYLAND,ST,BRO,BROCKTON,MA,482
19-3-FI,Suspicious Vehicle,36,PARKER,AVE,BRO,BROCKTON,MA,535
19-7-FI,Suspicious Vehicle,287,N MONTELLO,ST,BRO,BROCKTON,MA,592
19-8-FI,Suspicious Activity,479,PLEASANT,ST,BRO,BROCKTON,MA,592
19-9-FI,Police Information,391,WESTGATE,DR,BRO,BROCKTON,MA,557
19-10-FI,Traffic Post,74,N MONTELLO,ST,BRO,BROCKTON,MA,592
19-11-FI,Police Information,,BARRY,ST,BOS,BOSTON,MA,548
19-12-FI,Suspicious Vehicle,286,MAIN,ST,BRO,BROCKTON,MA,506
19-13-FI,Suspicious Vehicle,271,WEST,ST,BRO,BROCKTON,MA,506
19-14-FI,Police Information,23,N WARREN,AVE,BRO,BROCKTON,MA,573
19-15-FI,Other,23,N WARREN,AVE,BRO,BROCKTON,MA,389
19-16-FI,Police Information,191,HOWARD,ST,BRO,BROCKTON,MA,557
19-17-FI,RECOVERED STOLEN MV,402,PLEASANT,ST,BRO,BROCKTON,MA,535
19-18-FI,Police Information,138,NEWBURY,ST,BRO,BROCKTON,MA,506
19-20-FI,Suspicious Vehicle,770,N MAIN,ST,BRO,BROCKTON,MA,592
19-21-FI,RECOVERED STOLEN,30,INTERVALE,ST,BRO,BROCKTON,MA,557
19-22-FI,Other,34,JAMES,ST,BRO,BROCKTON,MA,389
19-24-FI,Suspicious Person,680,CENTRE,ST,BRO,BROCKTON,MA,317
19-25-FI,Suspicious Person,59,FOSTER,ST,BRO,BROCKTON,MA,591
19-26-FI,HOME INVASION IN TAUNTON,12,MORTON,ST,TAU,TAUNTON,MA,407
19-28-FI,Police Information,54,N MAIN,ST,BRO,BROCKTON,MA,557
19-29-FI,"FALL RIVER SHOOTING TARGET, DRUG ASSOCIATE",590,N MONTELLO,ST,BRO,BROCKTON,MA,548
19-30-FI,Police Information,55,SPRING,ST,BRO,BROCKTON,MA,586
19-31-FI,SUSPECTED DRUG DEALING,19,BROOKSIDE,AVE,BRO,BROCKTON,MA,535
19-32-FI,DRUG ACTIVITY,139,PLEASANT,ST,BRO,BROCKTON,MA,544
19-33-FI,Police Information,74,E ASHLAND,ST,BRO,BROCKTON,MA,557
19-34-FI,Police Information,150,WENTWORTH,AVE,BRO,BROCKTON,MA,443
19-35-FI,Suspicious Activity,93,N MAIN,ST,BRO,BROCKTON,MA,586
19-36-FI,SMART PHONE AND BURNER PHONE,,BELMONT,ST,BRO,BROCKTON,MA,548
19-38-FI,SUSPECTED DRUG ACTIVITY,31,FALCONER,AVE,BRO,BROCKTON,MA,535
19-39-FI,DRUG SALES,139,PLEASANT,ST,BRO,BROCKTON,MA,535
19-40-FI,FREQUENTS DRUG LOCATIONS,,ELLSWORTH,ST,BRO,BROCKTON,MA,548
19-41-FI,Suspicious Vehicle,1015,MAIN,ST,BRO,BROCKTON,MA,506
19-42-FI,Police Information,,,,BRO,BROCKTON,MA,544
19-43-FI,Police Information,78,PLEASANT,ST,BRO,BROCKTON,MA,544
19-44-FI,Suspicious Activity,181,PLEASANT,ST,BRO,BROCKTON,MA,586
19-45-FI,Suspicious Vehicle,1,SYCAMORE,AVE,BRO,BROCKTON,MA,506
19-46-FI,Suspicious Activity,321,COPELAND,ST,BRO,BROCKTON,MA,506
19-48-FI,Police Information,9,EMERALD,ST,BRO,BROCKTON,MA,479
19-47-FI,Police Information,7,COMMERCIAL,ST,BRO,BROCKTON,MA,548
19-49-FI,Suspicious Vehicle,20,TRIBOU,ST,BRO,BROCKTON,MA,506
19-50-FI,Suspicious Vehicle,311,W ELM,ST,BRO,BROCKTON,MA,506
19-51-FI,"SUSPICIOUS ACTIVITY, PAST CODE 4",,NORTH,AVE,BRO,BROCKTON,MA,548
19-52-FI,Other,385,WESTGATE,DR,BRO,BROCKTON,MA,592
19-54-FI,Suspicious Person,100,PERKINS,AVE,BRO,BROCKTON,MA,548
19-53-FI,PERKINS AVE GANG MEMBERS,24,E NILSSON,ST,BRO,BROCKTON,MA,535
19-61-FI,Suspicious Vehicle,728,COURT,ST,BRO,BROCKTON,MA,535
19-57-FI,SUSPECTED DRUG ACTIVITY,98,PINE,ST,BRO,BROCKTON,MA,535
19-58-FI,Other,30,BRUNSWICK,ST,BRO,BROCKTON,MA,559
19-59-FI,Suspicious Vehicle,122,BELMONT,ST,BRO,BROCKTON,MA,557
19-60-FI,Suspicious Person,,LINWOOD,ST,BRO,BROCKTON,MA,548
19-62-FI,THREATS,120,DOVER,ST,BRO,BROCKTON,MA,553
19-63-FI,Other,81,WARREN,AVE,BRO,BROCKTON,MA,563
19-64-FI,Police Information,47,FIRST,ST,BRO,BROCKTON,MA,347
19-65-FI,GANG INTELL,91,PACKARD,WAY,BRO,BROCKTON,MA,503
19-66-FI,Suspicious Vehicle,105,N MAIN,ST,BRO,BROCKTON,MA,506
19-67-FI,Suspicious Activity,11,HAMLET,ST,BRO,BROCKTON,MA,586
19-69-FI,Suspicious Activity,0,N MAIN,ST,BRO,BROCKTON,MA,608
19-75-FI,OFFICER AWARENESS(CODE 4),139,PLEASANT,ST,BRO,BROCKTON,MA,535
19-70-FI,Suspicious Vehicle,562,MAIN,ST,BRO,BROCKTON,MA,557
19-71-FI,Suspicious Vehicle,55,LEGION,PKWY,BRO,BROCKTON,MA,597
19-72-FI,Suspicious Person,30,N WARREN,AVE,BRO,BROCKTON,MA,506
19-73-FI,Suspicious Activity,304,BELMONT,ST,BRO,BROCKTON,MA,586
19-74-FI,Suspicious Vehicle,56,COURT,ST,BRO,BROCKTON,MA,506
19-76-FI,Police Information,236,CHATHAM WEST,DR,BRO,BROCKTON,MA,548
19-77-FI,Police Information,22,PARKER,ST,BRO,BROCKTON,MA,548
19-78-FI,Suspicious Activity,18,WALNUT,ST,BRO,BROCKTON,MA,506
19-79-FI,Police Information,23,PERKINS,ST,BRO,BROCKTON,MA,506
19-80-FI,Suspicious Vehicle,324,PLEASANT,ST,BRO,BROCKTON,MA,506
19-81-FI,Suspicious Vehicle,348,PLEASANT,ST,BRO,BROCKTON,MA,592
19-82-FI,Police Information,114,CLINTON,ST,BRO,BROCKTON,MA,544
19-83-FI,Police Information,491,N MONTELLO,ST,BRO,BROCKTON,MA,585
19-92-FI,Suspicious Person,1,WALNUT,ST,BRO,BROCKTON,MA,557
19-84-FI,Suspicious Vehicle,214,PROSPECT,ST,BRO,BROCKTON,MA,592
19-85-FI,Suspicious Vehicle,104,BATTLES FARM,DR,BRO,BROCKTON,MA,547
19-87-FI,Suspicious Person,81,WARREN,AVE,BRO,BROCKTON,MA,506
19-88-FI,Suspicious Person,81,WARREN,AVE,BRO,BROCKTON,MA,506
19-89-FI,Suspicious Person,139,PLEASANT,ST,BRO,BROCKTON,MA,506
19-90-FI,Suspicious Person,81,WARREN,AVE,BRO,BROCKTON,MA,506
19-91-FI,Suspicious Person,150,GREEN,ST,BRO,BROCKTON,MA,559
19-93-FI,OPEN TRAFFICKING FENT/ GUN CHARGE,190,BELLEVUE,AVE,BRO,BROCKTON,MA,548
19-94-FI,Police Information,25,LOUIS,ST,BRO,BROCKTON,MA,548
19-96-FI,Suspicious Vehicle,211,SPRING,ST,BRO,BROCKTON,MA,506
19-97-FI,Suspicious Vehicle,58,FOREST,RD,BRO,BROCKTON,MA,506
19-98-FI,Police Information,242,GREEN,ST,BRO,BROCKTON,MA,592
19-99-FI,Suspicious Vehicle/Robbery crew,132,CAMPANELLI,DR,BRO,BROCKTON,MA,548
19-100-FI,Police Information,19,COLUMBIA,ST,BRO,BROCKTON,MA,548
19-101-FI,Suspicious Vehicle,25,LYON,AVE,BRO,BROCKTON,MA,506
19-103-FI,Suspicious Vehicle,82,BELMONT,AVE,BRO,BROCKTON,MA,506
19-104-FI,Other,7,COMMERCIAL,ST,BRO,BROCKTON,MA,389
19-105-FI,Suspicious Person,,S LEYDEN,ST,BRO,BROCKTON,MA,548
19-106-FI,Suspicious Vehicle,53,MYRTLE,ST,BRO,BROCKTON,MA,557
19-107-FI,Police Information,81,WARREN,AVE,BRO,BROCKTON,MA,548
19-108-FI,Police Information,7,COMMERCIAL,ST,BRO,BROCKTON,MA,317
19-109-FI,Suspicious Activity,288,SULLY,RD,BRO,BROCKTON,MA,587
19-110-FI,Suspicious Activity,53,OAKLAND,ST,BRO,BROCKTON,MA,532
19-111-FI,UNWANTED GUEST,54,N MAIN,ST,BRO,BROCKTON,MA,496
19-112-FI,Other,23,ASH,ST,BRO,BROCKTON,MA,559
19-113-FI,VEHICLE PURSUIT,,FARRINGTON,ST,BRO,BROCKTON,MA,557
19-114-FI,Suspicious Vehicle,124,PLEASANT,ST,BRO,BROCKTON,MA,506
19-119-FI,Foot Patrol,135,BELMONT,ST,BRO,BROCKTON,MA,506
19-116-FI,Suspicious Vehicle,81,PLEASANT,ST,BRO,BROCKTON,MA,535
19-117-FI,Suspicious Person,110,MANOMET,ST,BRO,BROCKTON,MA,535
19-118-FI,Suspicious Activity,139,PLEASANT,ST,BRO,BROCKTON,MA,506
19-120-FI,Suspicious Person,192,GREEN,ST,BRO,BROCKTON,MA,506
19-122-FI,Suspicious Vehicle,385,N MONTELLO,ST,BRO,BROCKTON,MA,557
19-123-FI,Other,62,SPARK,ST,BRO,BROCKTON,MA,347
19-125-FI,"CENTER CONSOLE EASILY LIFTED, VOID UNDERNEATH",333,WARREN,AVE,BRO,BROCKTON,MA,548
19-126-FI,Suspicious Activity,117,WYMAN,ST,BRO,BROCKTON,MA,555
19-128-FI,Suspicious DRUG Activity,70,HERROD,AVE,BRO,BROCKTON,MA,544
19-129-FI,Other,382,MAIN,ST,BRO,BROCKTON,MA,559
19-131-FI,Suspicious Vehicle,11,COLBY,ST,BRO,BROCKTON,MA,569
19-132-FI,Suspicious Activity,150,GREEN,ST,BRO,BROCKTON,MA,557
19-139-FI,Suspicious Person/POTENTIAL ARMED SUBJECT(S),250,CRESCENT,ST,BRO,BROCKTON,MA,437
19-141-FI,Suspicious Activity,64,SPRING,ST,BRO,BROCKTON,MA,347
19-142-FI,Suspicious Person,139,PLEASANT,ST,BRO,BROCKTON,MA,380
19-143-FI,Police Information,,ARTHUR PAQUIN,WAY,BRO,BROCKTON,MA,548
19-144-FI,Suspicious Person,139,PLEASANT,ST,BRO,BROCKTON,MA,380
19-145-FI,Suspicious Activity,220,MAIN,ST,BRO,BROCKTON,MA,405
19-146-FI,Suspicious Person,103,MAIN,ST,BRO,BROCKTON,MA,372
19-147-FI,Suspicious Activity,42,GREEN,ST,BRO,BROCKTON,MA,420
19-148-FI,Suspicious Person,42,N MAIN,ST,BRO,BROCKTON,MA,372
19-150-FI,Suspicious Activity,54,MAIN,ST,BRO,BROCKTON,MA,420
19-153-FI,Police Information,37,ELM,AVE,BRO,BROCKTON,MA,548
19-154-FI,Police Information,542,N CARY,ST,BRO,BROCKTON,MA,437
19-155-FI,Police Information/FELIX BRANDAO SHOOTING,,PINE,AVE,BRO,BROCKTON,MA,437
19-156-FI,Suspicious Vehicle,252,SUMMER,ST,BRO,BROCKTON,MA,345
19-157-FI,GANG INTEL,7,COMMERCIAL,ST,BRO,BROCKTON,MA,557
19-200-FI,Traffic Post,394,BELMONT,ST,BRO,BROCKTON,MA,492
19-158-FI,Suspicious Activity,70,WALNUT,ST,BRO,BROCKTON,MA,569
19-161-FI,Police Information,581,PLAIN,ST,BRO,BROCKTON,MA,389
19-162-FI,Police Information,7,COMMERCIAL,ST,BRO,BROCKTON,MA,389
19-165-FI,Police Information,932,N MONTELLO,ST,BRO,BROCKTON,MA,569
19-167-FI,Suspicious Vehicle,15,NEWTON,ST,BRO,BROCKTON,MA,592
19-169-FI,Suspicious Vehicle,1224,MAIN,ST,BRO,BROCKTON,MA,506
19-170-FI,Traffic Post,728,COURT,ST,BRO,BROCKTON,MA,492
19-171-FI,Other,470,FOREST,AVE,BRO,BROCKTON,MA,608
19-174-FI,Other,470,FOREST,AVE,BRO,BROCKTON,MA,608
19-175-FI,Other,470,FOREST,AVE,BRO,BROCKTON,MA,608
19-176-FI,Other,470,FOREST,AVE,BRO,BROCKTON,MA,608
19-177-FI,Other,470,FOREST,AVE,BRO,BROCKTON,MA,608
19-178-FI,Other,470,FOREST,AVE,BRO,BROCKTON,MA,608
19-179-FI,Other,470,FOREST,AVE,BRO,BROCKTON,MA,608
19-180-FI,Other,470,FOREST,AVE,BRO,BROCKTON,MA,608
19-181-FI,Other,470,FOREST,AVE,BRO,BROCKTON,MA,608
19-172-FI,Suspicious Vehicle,256,GROVE,ST,BRO,BROCKTON,MA,562
19-173-FI,Suspicious Activity,15,MONSON,ST,BRO,BROCKTON,MA,586
19-182-FI,Police Information,282,PLEASANT,ST,BRO,BROCKTON,MA,559
19-183-FI,SUSPECTED NARCOTICS ACTIVITY,198,BELLEVUE,AVE,BRO,BROCKTON,MA,548
19-184-FI,Suspicious Vehicle/OPERATOR,7,COMMERCIAL,ST,BRO,BROCKTON,MA,592
19-185-FI,Other,7,COMMERCIAL,ST,BRO,BROCKTON,MA,389
19-186-FI,Suspicious Activity,306,PROSPECT,ST,BRO,BROCKTON,MA,569
19-187-FI,SUSPECTED DRUG ACTIVITY,20,GLEN,AVE,BRO,BROCKTON,MA,535
19-188-FI,Suspicious Person,46,FORD,ST,BRO,BROCKTON,MA,557
19-190-FI,Police Information,651,CRESCENT,ST,BRO,BROCKTON,MA,573
19-189-FI,Police Information,56,FALMOUTH,AVE,BRO,BROCKTON,MA,569
19-191-FI,DRUG BUYERS,,KESWICK,RD,BRO,BROCKTON,MA,548
19-192-FI,Police Information,692,MAIN,ST,BRO,BROCKTON,MA,569
19-193-FI,Suspicious Activity,675,MONTELLO,ST,BRO,BROCKTON,MA,551
19-194-FI,Suspicious Vehicle,11,JOHNSON,CT,BRO,BROCKTON,MA,614
19-195-FI,Police Information,30,BOURNE,ST,BRO,BROCKTON,MA,506
19-196-FI,Suspicious Activity,200,WESTGATE,DR,BRO,BROCKTON,MA,535
19-198-FI,VEHICLE PURSUIT/ CODE 4,,,,BRO,BROCKTON,MA,535
19-199-FI,Suspicious Activity,1005,BELMONT,ST,BRO,BROCKTON,MA,487
19-201-FI,Suspicious Vehicle,74,BELMONT,ST,BRO,BROCKTON,MA,557
19-202-FI,Suspicious Activity,139,PLEASANT,ST,BRO,BROCKTON,MA,506
19-203-FI,Suspicious Vehicle,260,PLEASANT,ST,BRO,BROCKTON,MA,592
19-204-FI,Suspicious Activity,201,PLEASANT,ST,BRO,BROCKTON,MA,506
19-205-FI,Suspicious Activity,65,LITCHFIELD,TER,BRO,BROCKTON,MA,345
19-206-FI,Suspicious Vehicle,299,GROVE,ST,BRO,BROCKTON,MA,506
19-207-FI,Suspicious Vehicle,1154,PEARL,ST,BRO,BROCKTON,MA,506
19-208-FI,Suspicious Vehicle,102,ASH,ST,BRO,BROCKTON,MA,557
19-209-FI,Suspicious Person,283,TORREY,ST,BRO,BROCKTON,MA,614
20-1-FI,Police Information,15,NEWTON,ST,BRO,BROCKTON,MA,569
20-2-FI,Police Information,9,HUNT,ST,BRO,BROCKTON,MA,506
20-3-FI,Police Information,367,PLEASANT,ST,BRO,BROCKTON,MA,555
20-5-FI,Police Information,66,GLENWOOD,ST,BRO,BROCKTON,MA,569
20-6-FI,Police Information,7,COMMERCIAL,ST,BRO,BROCKTON,MA,348
20-7-FI,Suspicious DRUG ACTIVITY,,DENISE,TER,BRO,BROCKTON,MA,535
20-11-FI,Police Information,162,ELLIOT,ST,BRO,BROCKTON,MA,569
20-12-FI,Suspicious Vehicle,195,COURT,ST,BRO,BROCKTON,MA,592
20-13-FI,Other,19,SUMMER,ST,BRO,BROCKTON,MA,559
20-14-FI,Other,200,WESTGATE,DR,BRO,BROCKTON,MA,405
20-15-FI,Police Information,359,W ELM,ST,BRO,BROCKTON,MA,557
20-16-FI,Police Information,,COURT,ST,BRO,BROCKTON,MA,548
20-17-FI,Police Information,48,WESTLAND,ST,BRO,BROCKTON,MA,591
20-18-FI,Police Information,,FITZPATRICK,CIR,BRO,BROCKTON,MA,569
20-20-FI,Police Information,150,CLINTON,ST,BRO,BROCKTON,MA,569
20-22-FI,Suspicious Person,15,JOHNSON,SQ,BRO,BROCKTON,MA,587
20-23-FI,Suspicious Activity,169,PLEASANT,ST,BRO,BROCKTON,MA,559
20-24-FI,Suspicious Vehicle,60,SKINNER,ST,BRO,BROCKTON,MA,506
20-25-FI,GANG ACTIVITY,385,WESTGATE,DR,BRO,BROCKTON,MA,503
20-26-FI,Traffic Post,1601,MAIN,ST,BRO,BROCKTON,MA,437
20-27-FI,Suspicious Vehicle,74,N MONTELLO,ST,BRO,BROCKTON,MA,592
20-28-FI,Suspicious Activity,822,BELMONT,ST,BRO,BROCKTON,MA,387
20-29-FI,Suspicious Vehicle,252,SINCLAIR,RD,BRO,BROCKTON,MA,548
20-30-FI,Suspicious Activity,353,MENLO,ST,BRO,BROCKTON,MA,492
20-31-FI,Suspicious Vehicle,418,FOREST,AVE,BRO,BROCKTON,MA,615
20-32-FI,Traffic Post,953,MAIN,ST,BRO,BROCKTON,MA,492
20-33-FI,Suspicious Activity,571,BELMONT,ST,BRO,BROCKTON,MA,555
20-34-FI,Police Information,63,HUNTINGTON,ST,BRO,BROCKTON,MA,569
20-35-FI,Police Information,522,N MAIN,ST,BRO,BROCKTON,MA,555
20-36-FI,Suspicious Vehicle,186,SPRING,ST,BRO,BROCKTON,MA,506
20-37-FI,Police Information,351,E ASHLAND,ST,BRO,BROCKTON,MA,548
20-39-FI,Suspicious Vehicle,15,STERLING,RD,BRO,BROCKTON,MA,592
20-40-FI,Suspicious Activity,259,SUMMER,ST,BRO,BROCKTON,MA,555
20-44-FI,Police Information,741,WARREN,AVE,BRO,BROCKTON,MA,569
20-45-FI,Police Information,36,MAIN,ST,BRO,BROCKTON,MA,569
20-46-FI,Police Information,362,WEST,ST,BRO,BROCKTON,MA,569
20-47-FI,Suspicious Activity,,,,BRO,BROCKTON,MA,555
20-48-FI,Suspicious Activity,,BURDETT,RD,BRO,BROCKTON,MA,592
20-49-FI,Other,114,COPELAND,ST,BRO,BROCKTON,MA,389
20-50-FI,Other,114,COPELAND,ST,BRO,BROCKTON,MA,389
20-51-FI,Suspicious Vehicle,27,KEITH,AVE,BRO,BROCKTON,MA,348
20-52-FI,Other,90,BELMONT,AVE,BRO,BROCKTON,MA,405
20-53-FI,DRUGS AND GUNS,,WEST,AVE,BRO,BROCKTON,MA,548
20-54-FI,Police Information,10,MAIN ST,PL,BRO,BROCKTON,MA,420
20-55-FI,Police Information,669,E ASHLAND,ST,BRO,BROCKTON,MA,559
20-56-FI,Suspicious Vehicle,40,GROVE,AVE,BRO,BROCKTON,MA,559
20-58-FI,Other,156,WESTGATE,DR,BRO,BROCKTON,MA,559
20-59-FI,Other,98,BOYLSTON,ST,BRO,BROCKTON,MA,559
20-61-FI,Suspicious Activity,314,N WARREN,AVE,BRO,BROCKTON,MA,559
20-62-FI,Police Information,88,AMES,ST,BRO,BROCKTON,MA,555
20-63-FI,Police Information,,STELLA,RD,BRO,BROCKTON,MA,443
20-64-FI,EXTENSIVE RECORD OUT OF STATE,675,CENTRE,ST,BRO,BROCKTON,MA,548
20-65-FI,Other,89,WARREN,AVE,BRO,BROCKTON,MA,389
20-66-FI,Police Information,5,MONTGOMERY,ST,BRO,BROCKTON,MA,592
20-67-FI,DRUG HOUSE,143,ALGONQUIN,ST,BRO,BROCKTON,MA,548
20-68-FI,Suspicious Vehicle,41,LONGWOOD,AVE,BRO,BROCKTON,MA,506
20-69-FI,Directed Patrol,,PARK,RD,BRO,BROCKTON,MA,334
20-70-FI,Police Information,266,BELMONT,ST,BRO,BROCKTON,MA,557
20-71-FI,Suspicious Activity,908,N MONTELLO,ST,BRO,BROCKTON,MA,348
20-72-FI,Suspicious Person,9,GODDARD,RD,BRO,BROCKTON,MA,350
20-73-FI,Other,380,N MAIN,ST,BRO,BROCKTON,MA,405
20-76-FI,Suspicious Person,864,CENTRE,ST,BRO,BROCKTON,MA,548
20-77-FI,Suspicious Activity,180,HIGHLAND,ST,BRO,BROCKTON,MA,557
20-79-FI,Suspicious Vehicle,,SEAVER,ST,BRO,BROCKTON,MA,557
20-80-FI,Suspicious Vehicle,,E BATTLES,ST,BRO,BROCKTON,MA,557
20-81-FI,Suspicious Vehicle,81,CLINTON,ST,BRO,BROCKTON,MA,559
20-83-FI,Suspicious Vehicle,54,HERROD,AVE,BRO,BROCKTON,MA,592
20-85-FI,Police Information,1,WYMAN,ST,BRO,BROCKTON,MA,559
20-87-FI,Police Information,53,COPELAND,ST,BRO,BROCKTON,MA,587
20-88-FI,Police Information,32,HAMILTON,ST,BRO,BROCKTON,MA,587
20-89-FI,Police Information,,REYNOLDS MEM,HWY,BRO,BROCKTON,MA,587
20-90-FI,Suspicious Vehicle,780,ASH,ST,BRO,BROCKTON,MA,592
20-91-FI,Suspicious Person,405,WESTGATE,DR,BRO,BROCKTON,MA,569
20-92-FI,Suspicious Vehicle,46,SPRING,ST,BRO,BROCKTON,MA,627
20-99-FI,Police Information,1,STILLMAN,AVE,BRO,BROCKTON,MA,569
20-94-FI,Police Information,134,CENTRE,ST,BRO,BROCKTON,MA,482
20-95-FI,Police Information,33,DOVER,ST,BRO,BROCKTON,MA,559
20-97-FI,Police Information,77,PLYMOUTH,ST,BRO,BROCKTON,MA,587
20-101-FI,Suspicious Vehicle,1,OSCAR,AVE,BRO,BROCKTON,MA,557
20-100-FI,Suspicious Person,733,N MAIN,ST,BRO,BROCKTON,MA,557
20-102-FI,Suspicious Person,68,FOSTER,ST,BRO,BROCKTON,MA,557
20-103-FI,Suspicious Person,380,PLEASANT,ST,BRO,BROCKTON,MA,557
20-104-FI,Suspicious Vehicle,,BELMONT,ST,BRO,BROCKTON,MA,587
20-105-FI,Police Information,1210,MONTELLO,ST,BRO,BROCKTON,MA,587
20-106-FI,Police Information,77,SPRING,ST,BRO,BROCKTON,MA,592
20-107-FI,Suspicious Activity,0,PORTER,ST,BRO,BROCKTON,MA,557
20-108-FI,Police Information,834,WARREN,AVE,BRO,BROCKTON,MA,557
20-110-FI,Police Information,28,NEWBURY,ST,BRO,BROCKTON,MA,559
20-111-FI,Police Information,294,WARREN,AVE,BRO,BROCKTON,MA,559
20-112-FI,Suspicious Vehicle,179,ASH,ST,BRO,BROCKTON,MA,535
20-115-FI,POLICE CHASE,,RESERVOIR,ST,BRO,BROCKTON,MA,557
20-116-FI,Police Information,446,PLEASANT,ST,BRO,BROCKTON,MA,443
20-117-FI,Police Information,17,FALCONER,AVE,BRO,BROCKTON,MA,479
20-122-FI,THREATS TOWARD POST OFFICE,1104,MAIN,ST,BRO,BROCKTON,MA,535
20-118-FI,SUSPECTED DRUG DEALING,141,MONTELLO,ST,BRO,BROCKTON,MA,535
20-119-FI,Suspicious Person,2,MONTELLO,ST,BRO,BROCKTON,MA,621
20-121-FI,Police Information,269,ROCKLAND,ST,BRO,BROCKTON,MA,387
20-123-FI,Police Information,7,COMMERCIAL,ST,BRO,BROCKTON,MA,592
20-124-FI,Suspicious Activity,1,PINKHAM,ST,BRO,BROCKTON,MA,535
20-125-FI,Police Information,224,W CHESTNUT,ST,BRO,BROCKTON,MA,621
20-126-FI,Other,73,MAIN,ST,BRO,BROCKTON,MA,589
20-127-FI,Suspicious Person,306,CRESCENT,ST,BRO,BROCKTON,MA,548
20-129-FI,SUSPECTED DRUG DEALING,,GROVE,AVE,BRO,BROCKTON,MA,535
20-131-FI,Suspicious Vehicle,226,PLEASANT,ST,BRO,BROCKTON,MA,557
20-133-FI,Suspicious Activity,2030,MAIN,ST,BRO,BROCKTON,MA,592
20-134-FI,Police Information,,PINE GROVE,DR,BRO,BROCKTON,MA,548
20-135-FI,MEANINGLESS RIDE,,RESERVOIR,ST,BRO,BROCKTON,MA,548
20-136-FI,Suspicious Vehicle,259,SUMMER,ST,BRO,BROCKTON,MA,559
20-138-FI,Police Information,23,COBURN,ST,BRO,BROCKTON,MA,555
20-139-FI,Police Information,227,N MONTELLO,ST,BRO,BROCKTON,MA,569
20-142-FI,Suspicious Vehicle,338,N MONTELLO,ST,BRO,BROCKTON,MA,592
20-143-FI,Suspicious Vehicle,160,ARTHUR PAQUIN,WAY,BRO,BROCKTON,MA,559
20-144-FI,Police Information,410,COURT,ST,BRO,BROCKTON,MA,559
20-145-FI,Traffic Post,180,BELMONT,AVE,BRO,BROCKTON,MA,492
20-146-FI,Suspicious Vehicle,48,WESTLAND,ST,BRO,BROCKTON,MA,557
20-147-FI,Suspicious Person,19,SKINNER,ST,BRO,BROCKTON,MA,557
20-149-FI,Suspicious Activity,53,KINGMAN,ST,BRO,BROCKTON,MA,492
20-151-FI,Suspicious Vehicle,269,FOREST,AVE,BRO,BROCKTON,MA,535
20-152-FI,Suspicious Activity,72,CLINTON,ST,BRO,BROCKTON,MA,535
20-154-FI,Police Information,7,COMMERCIAL,ST,BRO,BROCKTON,MA,587
20-155-FI,Police Information,428,BELMONT,ST,BRO,BROCKTON,MA,621
20-156-FI,Police Information,124,BATTLES,ST,BRO,BROCKTON,MA,569
20-157-FI,Police Information,135,ELLIOT,ST,BRO,BROCKTON,MA,555
20-159-FI,Traffic Post,220,HILLBERG,AVE,BRO,BROCKTON,MA,559
20-161-FI,Police Information,52,NILSSON,ST,BRO,BROCKTON,MA,587
20-163-FI,Suspicious Activity,,,,BRO,BROCKTON,MA,350
20-164-FI,Suspicious Activity,,,,BRO,BROCKTON,MA,350
20-165-FI,Suspicious Person,113,GREEN,ST,BRO,BROCKTON,MA,350
20-166-FI,Other,,WARREN,AVE,BRO,BROCKTON,MA,350
20-167-FI,Suspicious Activity,54,N MAIN,ST,BRO,BROCKTON,MA,350
20-168-FI,Suspicious Activity,55,WYMAN,ST,BRO,BROCKTON,MA,350
20-169-FI,Suspicious Person,258,N CARY,ST,BRO,BROCKTON,MA,350
20-162-FI,Suspicious Person,86,MENLO,ST,BRO,BROCKTON,MA,535
20-171-FI,Suspicious Vehicle,200,WESTGATE,DR,BRO,BROCKTON,MA,557
20-174-FI,Suspicious Vehicle,,N CARY,ST,BRO,BROCKTON,MA,536
20-175-FI,Police Information,52,NILSSON,ST,BRO,BROCKTON,MA,443
20-176-FI,Suspicious Vehicle,321,BELMONT,ST,BRO,BROCKTON,MA,415
20-177-FI,Suspicious Vehicle,1,WINTHROP,ST,BRO,BROCKTON,MA,557
20-178-FI,Suspicious Activity,500,PLEASANT,ST,BRO,BROCKTON,MA,559
20-179-FI,Police Information,282,PLEASANT,ST,BRO,BROCKTON,MA,387
20-181-FI,Police Information,194,COPELAND,ST,BRO,BROCKTON,MA,626
20-182-FI,Suspicious Vehicle,494,N MAIN,ST,BRO,BROCKTON,MA,557
20-185-FI,SUSPECTED DRUG DEALING,706,MAIN,ST,BRO,BROCKTON,MA,535
20-188-FI,Suspicious Vehicle,641,BELMONT,ST,BRO,BROCKTON,MA,557
20-191-FI,SUSPECTED DRUG DEAL,1,WEST,AVE,BRO,BROCKTON,MA,535
20-189-FI,Police Information,271,HILLBERG,AVE,BRO,BROCKTON,MA,535
20-190-FI,Suspicious Activity,38,GLENWOOD,SQ,BRO,BROCKTON,MA,532
20-193-FI,Suspicious Vehicle,98,FRENCH,AVE,BRO,BROCKTON,MA,557
20-194-FI,Police Information,342,GREEN,ST,BRO,BROCKTON,MA,569
21-1-FI,Police Information,,,,BRO,BROCKTON,MA,479
21-2-FI,Police Information,85,W ASHLAND,ST,BRO,BROCKTON,MA,555
21-5-FI,STATE POLICE CHASE/GUN ARREST,0,REYNOLDS MEM,HWY,BRO,BROCKTON,MA,407
21-4-FI,Suspicious Vehicle,1208,BELMONT,ST,BRO,BROCKTON,MA,551
21-6-FI,SUSPECTED DRUG ACTIVITY,391,WESTGATE,DR,BRO,BROCKTON,MA,592
21-7-FI,Suspicious Vehicle,,S FULLER ST,EXT,BRO,BROCKTON,MA,592
21-8-FI,Police Information,198,BIRCHVIEW,AVE,BRO,BROCKTON,MA,563
21-10-FI,Police Information,70,MAIN,ST,BRO,BROCKTON,MA,621
21-11-FI,Police Information,966,PLEASANT,ST,BRO,BROCKTON,MA,621
21-14-FI,Police Information,7,COMMERCIAL,ST,BRO,BROCKTON,MA,389
21-16-FI,Police Information,0,MONTELLO,ST,BRO,BROCKTON,MA,621
21-17-FI,Suspicious Vehicle,14,WALNUT,ST,BRO,BROCKTON,MA,548
21-19-FI,Other,369,N MONTELLO,ST,BRO,BROCKTON,MA,389
21-20-FI,Suspicious Vehicle,12,E BATTLES,ST,BRO,BROCKTON,MA,548
21-22-FI,Police Information,67,HIGHLAND,TER,BRO,BROCKTON,MA,559
21-24-FI,Suspicious Vehicle,81,WARREN,AVE,BRO,BROCKTON,MA,587
21-25-FI,Suspicious Activity,120,MAIN,ST,BRO,BROCKTON,MA,587
21-26-FI,Police Information,180,COURT,ST,BRO,BROCKTON,MA,621
21-28-FI,Police Information,28,BROAD,ST,BRO,BROCKTON,MA,559
21-29-FI,Suspicious Person,178,HIGHLAND,ST,BRO,BROCKTON,MA,609
21-30-FI,Police Information,45,RICHMOND,ST,BRO,BROCKTON,MA,557
21-31-FI,Suspicious Activity,297,GROVE,ST,BRO,BROCKTON,MA,586
21-32-FI,Suspicious Vehicle,26,BOUVE,AVE,BRO,BROCKTON,MA,592
21-33-FI,Police Information,562,N MAIN,ST,BRO,BROCKTON,MA,569
21-34-FI,Suspicious Person,68,TROUT,ST,BRO,BROCKTON,MA,557
21-37-FI,STAGED ACCIDENT,189,COUNTRY CLUB,LN,BRO,BROCKTON,MA,548
21-36-FI,Suspicious Activity,245,GREEN,ST,BRO,BROCKTON,MA,557
21-38-FI,Suspicious Activity,206,MAIN,ST,BRO,BROCKTON,MA,563
21-39-FI,SUSPECTED DRUG DEALER,181,W CHESTNUT,ST,BRO,BROCKTON,MA,535
21-40-FI,DIRT BIKES/ATV'S,40,INDUSTRIAL,BLVD,BRO,BROCKTON,MA,557
21-41-FI,Suspicious Activity,30,E ASHLAND,ST,BRO,BROCKTON,MA,592
21-42-FI,Police Information,,FIELD,ST,BRO,BROCKTON,MA,621
21-43-FI,Suspicious Activity,99,WARREN,AVE,BRO,BROCKTON,MA,506
21-45-FI,Suspicious Activity,28,FENWAY,CIR,BRO,BROCKTON,MA,592
21-46-FI,Police Information,7,COMMERCIAL,ST,BRO,BROCKTON,MA,389
21-47-FI,Suspicious Vehicle,603,N MONTELLO,ST,BRO,BROCKTON,MA,592
21-50-FI,Police Information,59,DYER,ST,BRO,BROCKTON,MA,621
21-52-FI,Suspicious Activity/FILMING TRAFFIC STOP,198,MANOMET,ST,BRO,BROCKTON,MA,548
21-53-FI,Police Information,316,CRESCENT,ST,BRO,BROCKTON,MA,621
21-54-FI,Suspicious Vehicle,66,SPRING,ST,BRO,BROCKTON,MA,548
21-55-FI,SHOOTING/DRUG RIP VEHICLE,1041,PEARL,ST,BRO,BROCKTON,MA,548
21-57-FI,Police Information,500,WESTGATE,DR,BRO,BROCKTON,MA,563
21-58-FI,Traffic Post,1254,MONTELLO,ST,BRO,BROCKTON,MA,492
21-59-FI,Suspicious Vehicle,30,RIVERSIDE,AVE,BRO,BROCKTON,MA,482
21-60-FI,Police Information,7,COMMERCIAL,ST,BRO,BROCKTON,MA,348
21-61-FI,Police Information,668,WARREN,AVE,BRO,BROCKTON,MA,592
21-63-FI,Police Information SEARCH WARRANT 141 FOREST ST #3,141,FOREST,ST,BRO,BROCKTON,MA,557
21-64-FI,Directed Patrol,110,GREEN,ST,BRO,BROCKTON,MA,641
21-66-FI,Suspicious Activity,55,STILLMAN,AVE,BRO,BROCKTON,MA,557
21-68-FI,Police Information,204,KESWICK,RD,BRO,BROCKTON,MA,633
21-69-FI,Police Information,,PETRONELLI,WAY,BRO,BROCKTON,MA,563
21-70-FI,Police Information,27,JOHNSON,CT,BRO,BROCKTON,MA,643
21-71-FI,Police Information,2001,MAIN,ST,BRO,BROCKTON,MA,557
21-72-FI,MBTA CAMPELLO SUSP VEHICLE,30,RIVERSIDE,AVE,BRO,BROCKTON,MA,557
21-73-FI,Suspicious Activity,182,GREEN,ST,BRO,BROCKTON,MA,592
21-75-FI,Suspicious Vehicle,106,PROSPECT,ST,BRO,BROCKTON,MA,590
21-74-FI,Suspicious Activity,661,N MAIN,ST,BRO,BROCKTON,MA,387
21-77-FI,Police Information (SHOTS FIRED THE BROCKTON MINI MART),35,WARREN,AVE,BRO,BROCKTON,MA,557
21-76-FI,Suspicious Vehicle,226,BELMONT,AVE,BRO,BROCKTON,MA,557
21-78-FI,Suspicious Person,548,MAIN,ST,BRO,BROCKTON,MA,548
21-79-FI,Police Information,,7 COMMERCIAL,ST,BRO,BROCKTON,MA,311
21-81-FI,Suspicious Vehicle,180,COURT,ST,BRO,BROCKTON,MA,633
21-82-FI,Suspicious Vehicle,85,PETERSON,AVE,BRO,BROCKTON,MA,548
21-84-FI,Suspicious Vehicle,20,CLIFTON,AVE,BRO,BROCKTON,MA,634
21-88-FI,Directed Patrol,156,WESTGATE,DR,BRO,BROCKTON,MA,634
21-89-FI,Suspicious Activity,14,MANOMET,ST,BRO,BROCKTON,MA,634
21-90-FI,Suspicious Activity,73,TABER,AVE,BRO,BROCKTON,MA,587
